{
  "type": "FeatureCollection",
  "metadata": {
    "generator": "SIH27143 SAR Processing Module",
    "timestamp": "2026-09-05T06:00:00Z",
    "satellite": "Sentinel-1",
    "resolution_m": 5,
    "polarization": "VV+VH dual",
    "look_direction": "Right",
    "processing_level": "LCSD - Level-1 SLC to Detection"
  },
  "features": [
    {
      "type": "Feature",
      "properties": {
        "date": "2026-09-05T04:42:00Z",
        "sensor": "SAR Sentinel-1 GRD",
        "mode": "IW (Interferometric Wide Swath)",
        "orbit": "ASCENDING",
        "resolution_m": 5.0,
        "polarization": "VV",
        "anomaly_detected": true,
        "detection_algorithm": "Canny Edge + Texture Classification",
        "processing_center": "ISRO-Bangalore",
        "confidence_pct": 98.7,
        "notes": "Clear oil surface detection - wind speed 2.3 m/s"
      },
      "geometry": {
        "type": "Polygon",
        "coordinates": [[
          [72.60, 18.70], [73.20, 18.70], [73.20, 19.20],
          [72.60, 19.20], [72.60, 18.70]
        ]]
      }
    }
  ]
}